H1 CPF  2 ESA 2024 11 20 10 325 01 galileo217
H2  1707903 7217    43057 2024 11 19 23 59 42 2024 11 24 23 59 42   900 1 1  0 0 0  1
H9
10 0 60637  64782.000000  0      -8716077.460     -26974068.239      -8497599.332
10 0 60637  65682.000000  0      -8861276.507     -27611054.467      -5905081.611
10 0 60637  66582.000000  0      -9001881.314     -28004016.519      -3239060.589
10 0 60637  67482.000000  0      -9104636.981     -28152527.190       -532720.645
10 0 60637  68382.000000  0      -9136958.525     -28062485.587       2180249.780
10 0 60637  69282.000000  0      -9068014.792     -27745910.044       4866078.985
10 0 60637  70182.000000  0      -8869758.301     -27220541.804       7491333.876
10 0 60637  71082.000000  0      -8517868.511     -26509271.953      10023337.551
10 0 60637  71982.000000  0      -7992578.734     -25639409.709      12430577.254
10 0 60637  72882.000000  0      -7279360.597     -24641815.101      14683097.553
10 0 60637  73782.000000  0      -6369444.459     -23549923.383      16752873.751
10 0 60637  74682.000000  0      -5260159.359     -22398691.893      18614160.863
10 0 60637  75582.000000  0      -3955081.779     -21223502.455      20243813.784
10 0 60637  76482.000000  0      -2463988.503     -20059053.825      21621574.717
10 0 60637  77382.000000  0       -802615.022     -18938278.909      22730324.300
10 0 60637  78282.000000  0       1007772.976     -17891320.695      23556293.425
10 0 60637  79182.000000  0       2940981.642     -16944598.917      24089233.166
10 0 60637  80082.000000  0       4966645.724     -16119996.640      24322540.839
10 0 60637  80982.000000  0       7051116.421     -15434192.102      24253340.691
10 0 60637  81882.000000  0       9158452.623     -14898156.650      23882518.323
10 0 60637  82782.000000  0      11251484.639     -14516834.314      23214708.487
10 0 60637  83682.000000  0      13292917.245     -14289012.958      22258236.461
10 0 60637  84582.000000  0      15246437.688     -14207390.883      21025013.761
10 0 60637  85482.000000  0      17077794.131     -14258836.698      19530389.505
10 0 60637  86382.000000  0      18755810.949     -14424834.202      17792959.256
10 0 60638    882.000000  0      20253309.261     -14682098.278      15834333.712
10 0 60638   1782.000000  0      21547904.042     -15003342.419      13678870.071
10 0 60638   2682.000000  0      22622652.989     -15358173.786      11353369.394
10 0 60638   3582.000000  0      23466536.975     -15714087.712       8886743.673
10 0 60638   4482.000000  0      24074757.138     -16037530.432       6309656.727
10 0 60638   5382.000000  0      24448839.424     -16294996.702       3654143.374
10 0 60638   6282.000000  0      24596543.388     -16454127.846        953211.582
10 0 60638   7182.000000  0      24531578.209     -16484775.786      -1759567.433
10 0 60638   8082.000000  0      24273134.869     -16359999.640      -4450476.078
10 0 60638   8982.000000  0      23845249.246     -16056963.604      -7086069.037
10 0 60638   9882.000000  0      23276016.117     -15557707.924      -9633588.485
10 0 60638  10782.000000  0      22596678.750     -14849768.723     -12061370.717
10 0 60638  11682.000000  0      21840622.652     -13926627.202     -14339239.132
10 0 60638  12582.000000  0      21042305.014     -12787974.061     -16438878.726
10 0 60638  13482.000000  0      20236153.402     -11439780.762     -18334187.456
10 0 60638  14382.000000  0      19455468.190      -9894175.310     -20001600.163
10 0 60638  15282.000000  0      18731363.100      -8169126.294     -21420381.072
10 0 60638  16182.000000  0      18091777.018      -6287944.960     -22572881.298
10 0 60638  17082.000000  0      17560587.991      -4278620.724     -23444758.197
10 0 60638  17982.000000  0      17156857.175      -2173010.732     -24025153.885
10 0 60638  18882.000000  0      16894226.372         -5908.642     -24306830.734
10 0 60638  19782.000000  0      16780488.062       2185978.454     -24286262.163
10 0 60638  20682.000000  0      16817341.420       4365113.160     -23963677.578
10 0 60638  21582.000000  0      17000342.031       6494237.257     -23343060.855
10 0 60638  22482.000000  0      17319046.938       8537473.015     -22432102.323
10 0 60638  23382.000000  0      17757350.583      10461382.004     -21242104.739
10 0 60638  24282.000000  0      18294001.203      12235948.403     -19787844.334
10 0 60638  25182.000000  0      18903281.593      13835456.099     -18087388.535
10 0 60638  26082.000000  0      19555832.963      15239232.179     -16161872.520
10 0 60638  26982.000000  0      20219596.119      16432233.542     -14035237.296
10 0 60638  27882.000000  0      20860840.454      17405458.281     -11733932.462
10 0 60638  28782.000000  0      21445248.464      18156168.925      -9286587.327
10 0 60638  29682.000000  0      21939021.694      18687920.564      -6723654.436
10 0 60638  30582.000000  0      22309973.320      19010392.983      -4077029.968
10 0 60638  31482.000000  0      22528572.948      19139032.116      -1379655.785
10 0 60638  32382.000000  0      22568910.696      19094512.136       1334891.847
10 0 60638  33282.000000  0      22409550.159      18902035.161       4032821.630
10 0 60638  34182.000000  0      22034243.313      18590490.672       6680549.359
10 0 60638  35082.000000  0      21432484.815      18191501.192       9245117.430
10 0 60638  35982.000000  0      20599888.172      17738384.318      11694606.382
10 0 60638  36882.000000  0      19538371.912      17265063.868      13998533.242
10 0 60638  37782.000000  0      18256149.846      16804964.459      16128231.650
10 0 60638  38682.000000  0      16767525.712      16389924.350      18057208.953
10 0 60638  39582.000000  0      15092498.616      16049160.759      19761475.834
10 0 60638  40482.000000  0      13256191.653      15808320.194      21219844.371
10 0 60638  41382.000000  0      11288121.593      15688643.621      22414190.857
10 0 60638  42282.000000  0       9221332.508      15706272.651      23329680.193
10 0 60638  43182.000000  0       7091420.445      15871718.481      23954949.146
10 0 60638  44082.000000  0       4935479.606      16189510.188      24282246.284
10 0 60638  44982.000000  0       2791002.953      16658033.350      24307526.951
10 0 60638  45882.000000  0        694771.515      17269563.987      24030502.197
10 0 60638  46782.000000  0      -1318232.989      18010496.719      23454641.123
10 0 60638  47682.000000  0      -3215858.359      18861759.950      22587126.679
10 0 60638  48582.000000  0      -4969722.911      19799405.054      21438765.504
10 0 60638  49482.000000  0      -6556037.990      20795351.101      20023852.941
10 0 60638  50382.000000  0      -7956286.486      21818261.813      18359994.906
10 0 60638  51282.000000  0      -9157736.281      22834527.298      16467888.805
10 0 60638  52182.000000  0     -10153772.747      23809319.842      14371066.195
10 0 60638  53082.000000  0     -10944040.052      24707690.714      12095600.349
10 0 60638  53982.000000  0     -11534386.992      25495673.664       9669782.340
10 0 60638  54882.000000  0     -11936619.194      26141360.542       7123769.610
10 0 60638  55782.000000  0     -12168065.574      26615915.380       4489211.414
10 0 60638  56682.000000  0     -12250972.743      26894495.152       1798855.739
10 0 60638  57582.000000  0     -12211746.439      26957048.353       -913857.387
10 0 60638  58482.000000  0     -12080063.862      26788966.391      -3615211.154
10 0 60638  59382.000000  0     -11887884.808      26381567.335      -6271630.622
10 0 60638  60282.000000  0     -11668392.676      25732396.862      -8850099.559
10 0 60638  61182.000000  0     -11454898.614      24845336.941     -11318570.275
10 0 60638  62082.000000  0     -11279743.196      23730518.808     -13646361.375
10 0 60638  62982.000000  0     -11173230.112      22404042.914     -15804538.495
10 0 60638  63882.000000  0     -11162625.335      20887514.565     -17766273.336
10 0 60638  64782.000000  0     -11271253.158      19207409.697     -19507176.549
10 0 60638  65682.000000  0     -11517717.468      17394290.561     -21005600.422
10 0 60638  66582.000000  0     -11915272.718      15481895.756     -22242907.629
10 0 60638  67482.000000  0     -12471364.339      13506132.933     -23203702.776
10 0 60638  68382.000000  0     -13187353.104      11504005.573     -23876023.905
10 0 60638  69282.000000  0     -14058432.145       9512507.236     -24251491.614
10 0 60638  70182.000000  0     -15073739.382       7567517.734     -24325413.943
10 0 60638  71082.000000  0     -16216661.969       5702735.606     -24096845.729
10 0 60638  71982.000000  0     -17465323.413       3948680.141     -23568601.630
10 0 60638  72882.000000  0     -18793238.257       2331794.091     -22747222.620
10 0 60638  73782.000000  0     -20170114.040        873675.012     -21642896.262
10 0 60638  74682.000000  0     -21562775.533       -409540.732     -20269331.665
10 0 60638  75582.000000  0     -22936182.479      -1507622.094     -18643590.556
10 0 60638  76482.000000  0     -24254509.031      -2416501.705     -16785876.458
10 0 60638  77382.000000  0     -25482251.143      -3138340.382     -14719284.491
10 0 60638  78282.000000  0     -26585327.223      -3681395.791     -12469514.815
10 0 60638  79182.000000  0     -27532137.539      -4059699.388     -10064553.230
10 0 60638  80082.000000  0     -28294549.081      -4292551.815      -7534322.864
10 0 60638  80982.000000  0     -28848774.939      -4403852.628      -4910311.302
10 0 60638  81882.000000  0     -29176120.495      -4421285.491      -2225177.823
10 0 60638  82782.000000  0     -29263572.924      -4375384.523        487654.279
10 0 60638  83682.000000  0     -29104215.425      -4298511.252       3194415.126
10 0 60638  84582.000000  0     -28697453.098      -4223774.469       5861410.122
10 0 60638  85482.000000  0     -28049043.345      -4183927.072       8455440.874
99